[{"OBJECT_NAME":"STARLINK-32640","OBJECT_ID":"2024-229G","EPOCH":"2026-03-09T13:25:10.363872","MEAN_MOTION":15.27592769,"ECCENTRICITY":8.763e-5,"INCLINATION":42.9959,"RA_OF_ASC_NODE":271.2603,"ARG_OF_PERICENTER":169.5848,"MEAN_ANOMALY":190.5022,"EPHEMERIS_TYPE":0,"CLASSIFICATION_TYPE":"U","NORAD_CAT_ID":62198,"ELEMENT_SET_NO":999,"REV_AT_EPOCH":7054,"BSTAR":0.00094614882,"MEAN_MOTION_DOT":0.00025875,"MEAN_MOTION_DDOT":0},{"OBJECT_NAME":"TOMORROW-S4","OBJECT_ID":"2024-247K","EPOCH":"2026-03-09T12:47:35.836224","MEAN_MOTION":15.27717249,"ECCENTRICITY":0.00044343,"INCLINATION":44.9818,"RA_OF_ASC_NODE":117.9996,"ARG_OF_PERICENTER":210.4078,"MEAN_ANOMALY":149.6548,"EPHEMERIS_TYPE":0,"CLASSIFICATION_TYPE":"U","NORAD_CAT_ID":62386,"ELEMENT_SET_NO":999,"REV_AT_EPOCH":6770,"BSTAR":0.00046927249,"MEAN_MOTION_DOT":0.00012677,"MEAN_MOTION_DDOT":0}]
